ONEWEB-0336             
1 49202U 21083S   26177.62851707  .00000152  00000+0  38112-3 0  9995
2 49202  87.8958 318.3474 0002019  91.0564 269.0796 13.13472340232151
ONEWEB-0337             
1 49203U 21083T   26177.63852369 -.00000183  00000+0 -53514-3 0  9991
2 49203  87.8959 318.3514 0002061  97.1987 262.9377 13.13470084232151
ONEWEB-0338             
1 49204U 21083U   26177.51068572  .00000081  00000+0  16799-3 0  9993
2 49204  87.9186 272.5901 0001825 106.7430 253.3904 13.20774877238042
ONEWEB-0339             
1 49205U 21083V   26177.64711667 -.00000288  00000+0 -82439-3 0  9993
2 49205  87.8960 318.3423 0001800 107.5054 252.6272 13.13470813232133
ONEWEB-0340             
1 49206U 21083W   26177.46633834  .00000037  00000+0  62275-4 0  9990
2 49206  87.9178 333.6094 0001984  91.2668 268.8691 13.18686559231193
ONEWEB-0341             
1 49207U 21083X   26177.47308209  .00000070  00000+0  14566-3 0  9993
2 49207  87.9168 333.6106 0002351  98.2546 261.8853 13.18686668231215
ONEWEB-0342             
1 49208U 21083Y   26177.29017755  .00000072  00000+0  14485-3 0  9999
2 49208  87.9196 272.6230 0002011 103.3199 256.8159 13.20771106237980
ONEWEB-0343             
1 49209U 21083Z   26177.48151527  .00000072  00000+0  14987-3 0  9994
2 49209  87.9170 333.6078 0001840 107.8584 252.2749 13.18686607231265
ONEWEB-0344             
1 49210U 21083AA  26177.64203318 -.00000240  00000+0 -69127-3 0  9995
2 49210  87.8953 318.3570 0002232  99.9655 260.1726 13.13468729232136
ONEWEB-0345             
1 49211U 21083AB  26177.63357489 -.00000037  00000+0 -13687-3 0  9998
2 49211  87.8970 318.3413 0002185 100.4291 259.7085 13.13468861232143
ONEWEB-0346             
1 49212U 21083AC  26177.47814175  .00000078  00000+0  16588-3 0  9997
2 49212  87.9168 333.6083 0002093  76.3963 283.7402 13.18686471231202
ONEWEB-0348             
1 49213U 21083AD  26177.50734723  .00000033  00000+0  50140-4 0  9996
2 49213  87.9199 272.5840 0002433  91.1133 269.0279 13.20771446238049
ONEWEB-0350             
1 49214U 21083AE  26177.65219194 -.00000243  00000+0 -70081-3 0  9993
2 49214  87.8966 318.3427 0000980 121.8229 238.2995 13.13470367232174
ONEWEB-0351             
1 49215U 21083AF  26177.50047034  .00000007  00000+0 -14647-4 0  9994
2 49215  87.9198 272.5840 0002396 120.3705 239.7666 13.20771476238001
ONEWEB-0352             
1 49216U 21083AG  26177.62342202  .00000279  00000+0  72946-3 0  9998
2 49216  87.8963 318.3537 0001878 111.3978 248.7351 13.13471203232269
ONEWEB-0354             
1 49217U 21083AH  26177.30026387  .00000063  00000+0  12209-3 0  9994
2 49217  87.9200 272.6226 0002393  95.7582 264.3825 13.20772755238014
ONEWEB-0355             
1 49218U 21083AJ  26177.65234197 -.00000203  00000+0 -59061-3 0  9998
2 49218  87.8958 318.3490 0002027 103.4395 256.6960 13.13470865232149
ONEWEB-0357             
1 49219U 21083AK  26177.52416881  .00000091  00000+0  19071-3 0  9997
2 49219  87.9199 272.5721 0002079 105.6404 254.4959 13.20773160238049
ONEWEB-0332             
1 49279U 21090A   26177.58112156  .00000008  00000+0 -13194-4 0  9995
2 49279  87.8967 287.8368 0001776 104.6870 255.4457 13.14502699228810
ONEWEB-0347             
1 49280U 21090B   26177.51408006  .00000111  00000+0  24042-3 0  9999
2 49280  87.9194 272.5821 0001779 103.5632 256.5700 13.20771815232270
ONEWEB-0349             
1 49281U 21090C   26177.54605761  .00000015  00000+0  54889-5 0  9997
2 49281  87.9195 272.5762 0002032 100.2140 259.9223 13.20773496231067
ONEWEB-0353             
1 49282U 21090D   26177.57319156 -.00000065  00000+0 -21072-3 0  9994
2 49282  87.8974 287.8343 0001703 104.5740 255.5579 13.14504025228811
ONEWEB-0356             
1 49283U 21090E   26177.54435731  .00000002  00000+0 -26292-4 0  9990
2 49283  87.9196 272.5699 0001740  76.6744 283.4583 13.20773741231064
ONEWEB-0358             
1 49284U 21090F   26177.50467230  .00032305  00000+0  79348-1 0  9993
2 49284  87.9193 272.5853 0002206  93.6415 266.4971 13.20592681231789
ONEWEB-0359             
1 49285U 21090G   26177.49553895  .00000086  00000+0  17964-3 0  9994
2 49285  87.9197 272.5797 0002294  95.8431 264.2963 13.20774768231763
ONEWEB-0360             
1 49286U 21090H   26177.25818071  .00000003  00000+0 -25610-4 0  9997
2 49286  87.9195 272.6332 0002118 101.4439 258.6932 13.20770364231047
ONEWEB-0361             
1 49287U 21090J   26177.54269288 -.00001203  00000+0 -29910-2 0  9999
2 49287  87.9192 272.5745 0001846  82.9864 277.1480 13.20778399231538
ONEWEB-0362             
1 49288U 21090K   26177.57851331  .00000088  00000+0  18631-3 0  9996
2 49288  87.9178 303.1069 0002106 106.8362 253.3002 13.19725795228152
ONEWEB-0363             
1 49289U 21090L   26177.55784532  .00000033  00000+0  48145-4 0  9997
2 49289  87.9196 272.5721 0001925  90.3194 269.8160 13.20771852231546
ONEWEB-0364             
1 49290U 21090M   26177.52080757  .00000134  00000+0  29782-3 0  9991
2 49290  87.9196 272.5874 0002086 100.2615 259.8754 13.20772409232677
