OBJECT_NAME,OBJECT_ID,EPOCH,MEAN_MOTION,ECCENTRICITY,INCLINATION,RA_OF_ASC_NODE,ARG_OF_PERICENTER,MEAN_ANOMALY,EPHEMERIS_TYPE,CLASSIFICATION_TYPE,NORAD_CAT_ID,ELEMENT_SET_NO,REV_AT_EPOCH,BSTAR,MEAN_MOTION_DOT,MEAN_MOTION_DDOT
ONEWEB-0336,2021-083S,2026-06-26T15:05:03.874848,13.13472340,.00020191,87.8958,318.3474,91.0564,269.0796,0,U,49202,999,23215,.38111826E-3,.152E-5,0
ONEWEB-0337,2021-083T,2026-06-26T15:19:28.446816,13.13470084,.0002061,87.8959,318.3514,97.1987,262.9377,0,U,49203,999,23215,-.5351401E-3,-.183E-5,0
ONEWEB-0338,2021-083U,2026-06-26T12:15:23.246208,13.20774877,.00018254,87.9186,272.5901,106.7430,253.3904,0,U,49204,999,23804,.16798899E-3,.81E-6,0
ONEWEB-0339,2021-083V,2026-06-26T15:31:50.880288,13.13470813,.00018,87.8960,318.3423,107.5054,252.6272,0,U,49205,999,23213,-.82438761E-3,-.288E-5,0
ONEWEB-0340,2021-083W,2026-06-26T11:11:31.632576,13.18686559,.00019843,87.9178,333.6094,91.2668,268.8691,0,U,49206,999,23119,.62275493E-4,.37E-6,0
ONEWEB-0341,2021-083X,2026-06-26T11:21:14.292576,13.18686668,.00023519,87.9168,333.6106,98.2546,261.8853,0,U,49207,999,23121,.14565792E-3,.7E-6,0
ONEWEB-0342,2021-083Y,2026-06-26T06:57:51.340320,13.20771106,.00020115,87.9196,272.6230,103.3199,256.8159,0,U,49208,999,23798,.14485193E-3,.72E-6,0
ONEWEB-0343,2021-083Z,2026-06-26T11:33:22.919328,13.18686607,.00018405,87.9170,333.6078,107.8584,252.2749,0,U,49209,999,23126,.14987347E-3,.72E-6,0
ONEWEB-0344,2021-083AA,2026-06-26T15:24:31.666752,13.13468729,.00022325,87.8953,318.3570,99.9655,260.1726,0,U,49210,999,23213,-.69127122E-3,-.24E-5,0
ONEWEB-0345,2021-083AB,2026-06-26T15:12:20.870496,13.13468861,.00021852,87.8970,318.3413,100.4291,259.7085,0,U,49211,999,23214,-.13687033E-3,-.37E-6,0
ONEWEB-0346,2021-083AC,2026-06-26T11:28:31.447200,13.18686471,.00020935,87.9168,333.6083,76.3963,283.7402,0,U,49212,999,23120,.16588221E-3,.78E-6,0
ONEWEB-0348,2021-083AD,2026-06-26T12:10:34.800672,13.20771446,.00024335,87.9199,272.5840,91.1133,269.0279,0,U,49213,999,23804,.50139823E-4,.33E-6,0
ONEWEB-0350,2021-083AE,2026-06-26T15:39:09.383616,13.13470367,.00009809,87.8966,318.3427,121.8229,238.2995,0,U,49214,999,23217,-.70081323E-3,-.243E-5,0
ONEWEB-0351,2021-083AF,2026-06-26T12:00:40.637376,13.20771476,.00023964,87.9198,272.5840,120.3705,239.7666,0,U,49215,999,23800,-.14647172E-4,.7E-7,0
ONEWEB-0352,2021-083AG,2026-06-26T14:57:43.662528,13.13471203,.0001878,87.8963,318.3537,111.3978,248.7351,0,U,49216,999,23226,.72946456E-3,.279E-5,0
ONEWEB-0354,2021-083AH,2026-06-26T07:12:22.798368,13.20772755,.00023939,87.9200,272.6226,95.7582,264.3825,0,U,49217,999,23801,.12208668E-3,.63E-6,0
ONEWEB-0355,2021-083AJ,2026-06-26T15:39:22.346208,13.13470865,.00020275,87.8958,318.3490,103.4395,256.6960,0,U,49218,999,23214,-.59060573E-3,-.203E-5,0
ONEWEB-0357,2021-083AK,2026-06-26T12:34:48.185184,13.20773160,.00020799,87.9199,272.5721,105.6404,254.4959,0,U,49219,999,23804,.19070854E-3,.91E-6,0
ONEWEB-0332,2021-090A,2026-06-26T13:56:48.902784,13.14502699,.00017766,87.8967,287.8368,104.6870,255.4457,0,U,49279,999,22881,-.13193987E-4,.8E-7,0
ONEWEB-0347,2021-090B,2026-06-26T12:20:16.517184,13.20771815,.00017793,87.9194,272.5821,103.5632,256.5700,0,U,49280,999,23227,.24042254E-3,.111E-5,0
ONEWEB-0349,2021-090C,2026-06-26T13:06:19.377504,13.20773496,.00020325,87.9195,272.5762,100.2140,259.9223,0,U,49281,999,23106,.5488937E-5,.15E-6,0
ONEWEB-0353,2021-090D,2026-06-26T13:45:23.750784,13.14504025,.00017038,87.8974,287.8343,104.5740,255.5579,0,U,49282,999,22881,-.21072465E-3,-.65E-6,0
ONEWEB-0356,2021-090E,2026-06-26T13:03:52.471584,13.20773741,.00017402,87.9196,272.5699,76.6744,283.4583,0,U,49283,999,23106,-.26292188E-4,.2E-7,0
ONEWEB-0358,2021-090F,2026-06-26T12:06:43.686720,13.20592681,.00022067,87.9193,272.5853,93.6415,266.4971,0,U,49284,999,23178,.79347669E-1,.32305E-3,0
ONEWEB-0359,2021-090G,2026-06-26T11:53:34.565280,13.20774768,.00022944,87.9197,272.5797,95.8431,264.2963,0,U,49285,999,23176,.1796427E-3,.86E-6,0
ONEWEB-0360,2021-090H,2026-06-26T06:11:46.813344,13.20770364,.00021183,87.9195,272.6332,101.4439,258.6932,0,U,49286,999,23104,-.25610005E-4,.3E-7,0
ONEWEB-0361,2021-090J,2026-06-26T13:01:28.664832,13.20778399,.00018467,87.9192,272.5745,82.9864,277.1480,0,U,49287,999,23153,-.29910108E-2,-.1203E-4,0
ONEWEB-0362,2021-090K,2026-06-26T13:53:03.549984,13.19725795,.00021069,87.9178,303.1069,106.8362,253.3002,0,U,49288,999,22815,.18630659E-3,.88E-6,0
ONEWEB-0363,2021-090L,2026-06-26T13:23:17.835648,13.20771852,.00019258,87.9196,272.5721,90.3194,269.8160,0,U,49289,999,23154,.48145416E-4,.33E-6,0
ONEWEB-0364,2021-090M,2026-06-26T12:29:57.774048,13.20772409,.00020862,87.9196,272.5874,100.2615,259.8754,0,U,49290,999,23267,.29782102E-3,.134E-5,0
